IRIDIUM 24 [-]          
1 25105U 97082B   17346.50535369  .00000125  00000-0  33348-4 0  9999
2 25105  86.3910 160.1920 0013489 113.8337 246.4277 14.39892784 48517
